[{"OBJECT_NAME":"STARLINK-34632","OBJECT_ID":"2025-150C","EPOCH":"2026-03-09T14:41:27.561984","MEAN_MOTION":14.98333403,"ECCENTRICITY":0.0003624,"INCLINATION":70.0018,"RA_OF_ASC_NODE":134.5967,"ARG_OF_PERICENTER":272.7438,"MEAN_ANOMALY":87.3306,"EPHEMERIS_TYPE":0,"CLASSIFICATION_TYPE":"U","NORAD_CAT_ID":64792,"ELEMENT_SET_NO":999,"REV_AT_EPOCH":3650,"BSTAR":0.00028859,"MEAN_MOTION_DOT":3.352e-5,"MEAN_MOTION_DDOT":0},{"OBJECT_NAME":"NOAA 16 DEB","OBJECT_ID":"2000-055FT","EPOCH":"2026-03-09T11:21:21.418848","MEAN_MOTION":14.95188517,"ECCENTRICITY":0.00213748,"INCLINATION":98.8051,"RA_OF_ASC_NODE":256.9705,"ARG_OF_PERICENTER":245.6688,"MEAN_ANOMALY":114.2298,"EPHEMERIS_TYPE":0,"CLASSIFICATION_TYPE":"U","NORAD_CAT_ID":41267,"ELEMENT_SET_NO":999,"REV_AT_EPOCH":53609,"BSTAR":0.0049990459,"MEAN_MOTION_DOT":0.00055514,"MEAN_MOTION_DDOT":0}]
